ORBCOMM-X               
1 21576U 91050C   25152.43182380  .00000410  00000+0  13461-3 0  9992
2 21576  98.3440 219.3507 0002742 216.8819 143.2183 14.43251231779841
ORBCOMM FM01            
1 23545U 95017A   25152.42356738  .00006871  00000+0  72125-3 0  9995
2 23545  69.9626 113.4376 0004905 301.4521  58.6153 14.89898137610168
ORBCOMM FM02            
1 23546U 95017B   25152.64353945  .00024626  00000+0  25015-2 0  9990
2 23546  69.9637 132.3290 0006209 309.3808  50.6797 14.90745671610140
ORBCOMM FM08            
1 25112U 97084A   25152.84067738  .00002002  00000+0  59974-3 0  9997
2 25112  45.0135  81.5305 0004756 175.3928 184.6968 14.45767739439326
ORBCOMM FM10            
1 25113U 97084B   25152.81954758  .00001871  00000+0  56555-3 0  9997
2 25113  45.0155  83.9855 0003181 125.6901 234.4247 14.45555962439300
ORBCOMM FM11            
1 25114U 97084C   25152.54493656  .00003341  00000+0  98238-3 0  9991
2 25114  45.0141  85.9076 0003895 128.7108 231.4092 14.45317741439214
ORBCOMM FM12            
1 25115U 97084D   25152.50765918  .00002967  00000+0  87677-3 0  9999
2 25115  45.0148  85.8384 0002937 121.4632 238.6506 14.45336391439009
ORBCOMM FM09            
1 25116U 97084E   25152.81513946  .00001747  00000+0  53470-3 0  9995
2 25116  45.0152  85.2809 0004474 112.5520 247.5805 14.45205985439281
